{
  "norad_id": 69103,
  "name": "DRAGON CRS-34",
  "history": [
    {
      "epoch": "2026-05-16T02:29:51.928800Z",
      "apogee_km": 305.2313520367652,
      "perigee_km": 208.0949584519194,
      "latitude_deg": -3.17381049586207e-05,
      "longitude_deg": -171.96635682089533,
      "height_km": 288.5670453022518,
      "semi_major_axis_km": 6634.800155244342,
      "eccentricity": 0.00732022,
      "inclination_deg": 51.6488,
      "raan_deg": 99.326,
      "arg_perigee_deg": 229.8939,
      "mean_anomaly_deg": 129.5643,
      "mean_motion_rev_day": 16.06426992
    }
  ]
}